[Satellite]
VERSION=1.1
NAME=CUBEBUG-1 (CAPITAN BETO)
NICKNAME=CUBEBUG-1 (CAPITAN BETO)
TLE1=1 39153U 13018D   15055.17257689  .00001978  00000-0  27565-3 0  9998
TLE2=2 39153  98.0219 139.8761 0016426 256.1589 103.7794 14.78794208 98774
